NORAD_CAT_ID,OBJECT_NAME,OBJECT_TYPE,EPOCH,MEAN_MOTION,ECCENTRICITY,INCLINATION,RA_OF_ASC_NODE,ARG_OF_PERICENTER,MEAN_ANOMALY,BSTAR,MEAN_MOTION_DOT,MEAN_MOTION_DDOT,TLE_LINE0,TLE_LINE1,TLE_LINE2,SEMIMAJOR_AXIS,PERIOD,APOGEE,PERIGEE,DECAYED
53022.0,STARLINK-4216,PAYLOAD,2024-03-21 08:55:34,15.08847814,0.0001527,53.217,68.7724,94.3496,265.767,7.7686e-05,9.49e-06,0.0,0 STARLINK-4216,1 53022U 22076AN  24081.37192594  .00000949  00000-0  77686-4 0  9994,2 53022  53.2170  68.7724 0001527  94.3496 265.7670 15.08847814 95010,6917.857,95.437,540.778,538.665,0.0
53022.0,STARLINK-4216,PAYLOAD,2024-03-22 04:00:12,15.08841084,0.0001473,53.2177,65.2024,95.9085,264.2075,0.00012615,1.72e-05,0.0,0 STARLINK-4216,1 53022U 22076AN  24082.16680817  .00001720  00000-0  12615-3 0  9990,2 53022  53.2177  65.2024 0001473  95.9085 264.2075 15.08841084 95132,6917.877,95.437,540.761,538.723,0.0
53022.0,STARLINK-4216,PAYLOAD,2024-03-22 08:46:21,15.08840491,0.0001432,53.2176,64.3105,94.4449,265.6707,0.00011218,1.498e-05,0.0,0 STARLINK-4216,1 53022U 22076AN  24082.36552906  .00001498  00000-0  11218-3 0  9999,2 53022  53.2176  64.3105 0001432  94.4449 265.6707 15.08840491 94692,6917.879,95.438,540.735,538.753,0.0
53022.0,STARLINK-4216,PAYLOAD,2024-03-23 05:26:23,15.08830299,0.0001429,53.2175,60.444,107.2821,252.8327,-6.3193e-05,-1.293e-05,0.0,0 STARLINK-4216,1 53022U 22076AN  24083.22666185 -.00001293  00000-0 -63193-4 0  9995,2 53022  53.2175  60.4440 0001429 107.2821 252.8327 15.08830299 95291,6917.91,95.438,540.764,538.786,0.0
53022.0,STARLINK-4216,PAYLOAD,2024-03-23 22:55:37,15.08841038,0.0001218,53.2173,57.1701,118.5334,241.5781,-2.9865e-05,-7.63e-06,0.0,0 STARLINK-4216,1 53022U 22076AN  24083.95529535 -.00000763  00000-0 -29865-4 0  9991,2 53022  53.2173  57.1701 0001218 118.5334 241.5781 15.08841038 94934,6917.877,95.437,540.585,538.9,0.0
53022.0,STARLINK-4216,PAYLOAD,2024-03-24 05:17:09,15.08851198,0.0001405,53.2187,55.9918,118.0905,242.023,0.00012853,1.759e-05,0.0,0 STARLINK-4216,1 53022U 22076AN  24084.22024576  .00001759  00000-0  12853-3 0  9999,2 53022  53.2187  55.9918 0001405 118.0905 242.0230 15.08851198 95442,6917.846,95.437,540.683,538.739,0.0
53022.0,STARLINK-4216,PAYLOAD,2024-03-24 21:11:00,15.0884813,0.0001324,53.2191,53.0206,107.9921,252.1215,0.00029471,4.407e-05,0.0,0 STARLINK-4216,1 53022U 22076AN  24084.88264671  .00004407  00000-0  29471-3 0  9990,2 53022  53.2191  53.0206 0001324 107.9921 252.1215 15.08848130 95549,6917.856,95.437,540.636,538.805,0.0
53022.0,STARLINK-4216,PAYLOAD,2024-03-25 05:07:58,15.08825645,0.0001272,53.218,51.5211,88.5427,271.5711,6.8135e-05,7.96e-06,0.0,0 STARLINK-4216,1 53022U 22076AN  24085.21386715  .00000796  00000-0  68135-4 0  9990,2 53022  53.2180  51.5211 0001272  88.5427 271.5711 15.08825645 95590,6917.924,95.438,540.669,538.909,0.0
53022.0,STARLINK-4216,PAYLOAD,2024-03-25 14:40:16,15.08841296,0.0001439,53.2188,49.7444,77.178,282.9373,0.00011399,1.527e-05,0.0,0 STARLINK-4216,1 53022U 22076AN  24085.61129926  .00001527  00000-0  11399-3 0  9995,2 53022  53.2188  49.7444 0001439  77.1780 282.9373 15.08841296 95653,6917.876,95.437,540.737,538.746,0.0
53022.0,STARLINK-4216,PAYLOAD,2024-03-26 04:58:46,15.08821521,0.0001377,53.2182,47.0689,81.7498,278.365,-0.00018925,-3.297e-05,0.0,0 STARLINK-4216,1 53022U 22076AN  24086.20748611 -.00003297  00000-0 -18925-3 0  9999,2 53022  53.2182  47.0689 0001377  81.7498 278.3650 15.08821521 95743,6917.937,95.439,540.754,538.849,0.0
53022.0,STARLINK-4216,PAYLOAD,2024-03-26 14:31:04,15.08840347,0.0001512,53.2197,45.2847,83.3893,276.7271,-9.0871e-05,-1.734e-05,0.0,0 STARLINK-4216,1 53022U 22076AN  24086.60491364 -.00001734  00000-0 -90871-4 0  9998,2 53022  53.2197  45.2847 0001512  83.3893 276.7271 15.08840347 95336,6917.879,95.438,540.79,538.698,0.0
53022.0,STARLINK-4216,PAYLOAD,2024-03-26 20:52:37,15.08823587,0.0001755,53.2195,44.0946,73.4835,286.635,0.00022144,3.236e-05,0.0,0 STARLINK-4216,1 53022U 22076AN  24086.86987924  .00003236  00000-0  22144-3 0  9992,2 53022  53.2195  44.0946 0001755  73.4835 286.6350 15.08823587 95847,6917.931,95.439,541.01,538.581,0.0
53022.0,STARLINK-4216,PAYLOAD,2024-03-27 04:49:31,15.08850902,0.0001555,53.2189,42.6057,76.4907,283.6258,0.00038705,5.879e-05,0.0,0 STARLINK-4216,1 53022U 22076AN  24087.20105907  .00005879  00000-0  38705-3 0  9999,2 53022  53.2189  42.6057 0001555  76.4907 283.6258 15.08850902 95898,6917.847,95.437,540.788,538.636,0.0
53022.0,STARLINK-4216,PAYLOAD,2024-03-27 14:21:49,15.08860285,0.0001456,53.2182,40.8233,82.2712,277.8446,0.00029313,4.383e-05,0.0,0 STARLINK-4216,1 53022U 22076AN  24087.59849202  .00004383  00000-0  29313-3 0  9998,2 53022  53.2182  40.8233 0001456  82.2712 277.8446 15.08860285 95480,6917.818,95.436,540.691,538.676,0.0
53022.0,STARLINK-4216,PAYLOAD,2024-03-27 20:43:24,15.08828877,0.0001708,53.2191,39.6312,88.7508,271.368,0.00029838,4.462e-05,0.0,0 STARLINK-4216,1 53022U 22076AN  24087.86347281  .00004462  00000-0  29838-3 0  9998,2 53022  53.2191  39.6312 0001708  88.7508 271.3680 15.08828877 95994,6917.914,95.438,540.961,538.598,0.0
53022.0,STARLINK-4216,PAYLOAD,2024-03-28 03:04:56,15.08836869,0.0001627,53.2184,38.4425,91.0412,269.0767,0.00033277,5.012e-05,0.0,0 STARLINK-4216,1 53022U 22076AN  24088.12842752  .00005012  00000-0  33277-3 0  9995,2 53022  53.2184  38.4425 0001627  91.0412 269.0767 15.08836869 96035,6917.89,95.438,540.88,538.629,0.0
53022.0,STARLINK-4216,PAYLOAD,2024-03-28 14:12:37,15.08848963,0.0001348,53.2184,36.3591,92.9337,267.1809,0.00027735,4.13e-05,0.0,0 STARLINK-4216,1 53022U 22076AN  24088.59209936  .00004130  00000-0  27735-3 0  9999,2 53022  53.2184  36.3591 0001348  92.9337 267.1809 15.08848963 95631,6917.853,95.437,540.651,538.785,0.0
53022.0,STARLINK-4216,PAYLOAD,2024-03-28 20:34:10,15.08845281,0.0001667,53.2184,35.1708,90.8107,269.3076,0.00026145,3.876e-05,0.0,0 STARLINK-4216,1 53022U 22076AN  24088.85706226  .00003876  00000-0  26145-3 0  9992,2 53022  53.2184  35.1708 0001667  90.8107 269.3076 15.08845281 95678,6917.864,95.437,540.882,538.576,0.0
53022.0,STARLINK-4216,PAYLOAD,2024-03-29 01:20:20,15.08832083,8.73e-05,53.2188,34.2784,113.5871,246.5212,0.00015521,2.183e-05,0.0,0 STARLINK-4216,1 53022U 22076AN  24089.05579118  .00002183  00000-0  15521-3 0  9999,2 53022  53.2188  34.2784 0000873 113.5871 246.5212 15.08832083 96176,6917.905,95.438,540.374,539.166,0.0
53022.0,STARLINK-4216,PAYLOAD,2024-03-29 06:06:29,15.08848024,0.0001771,53.2188,33.3852,127.4325,232.6828,-5.073e-05,-1.096e-05,0.0,0 STARLINK-4216,1 53022U 22076AN  24089.25450365 -.00001096  00000-0 -50730-4 0  9999,2 53022  53.2188  33.3852 0001771 127.4325 232.6828 15.08848024 96203,6917.856,95.437,540.946,538.496,0.0
53022.0,STARLINK-4216,PAYLOAD,2024-03-30 12:18:47,15.0885648,0.0001373,53.2199,27.7387,99.3545,260.7603,0.00010538,1.39e-05,0.0,0 STARLINK-4216,1 53022U 22076AN  24090.51304880  .00001390  00000-0  10538-3 0  9996,2 53022  53.2199  27.7387 0001373  99.3545 260.7603 15.08856480 96392,6917.83,95.437,540.645,538.745,0.0
53022.0,STARLINK-4216,PAYLOAD,2024-03-30 20:15:43,15.08848855,0.0003008,53.2194,26.2507,85.541,274.5926,0.0002563,3.794e-05,0.0,0 STARLINK-4216,1 53022U 22076AN  24090.84425828  .00003794  00000-0  25630-3 0  9997,2 53022  53.2194  26.2507 0003008  85.5410 274.5926 15.08848855 96444,6917.853,95.437,541.799,537.637,0.0
53022.0,STARLINK-4216,PAYLOAD,2024-03-31 02:37:17,15.08828259,0.0001323,53.2192,25.0674,85.6908,274.4235,0.00014803,2.068e-05,0.0,0 STARLINK-4216,1 53022U 22076AN  24091.10923185  .00002068  00000-0  14803-3 0  9999,2 53022  53.2192  25.0674 0001323  85.6908 274.4235 15.08828259 96487,6917.916,95.438,540.697,538.866,0.0
53022.0,STARLINK-4216,PAYLOAD,2024-03-31 12:09:35,15.08846773,0.0001507,53.2203,23.2831,91.8265,268.29,8.2538e-05,1.026e-05,0.0,0 STARLINK-4216,1 53022U 22076AN  24091.50665838  .00001026  00000-0  82538-4 0  9995,2 53022  53.2203  23.2831 0001507  91.8265 268.2900 15.08846773 96542,6917.86,95.437,540.767,538.682,0.0
53022.0,STARLINK-4216,PAYLOAD,2024-04-01 04:03:27,15.08832102,0.0001396,53.2186,20.3066,103.2188,256.896,-3.5091e-05,-8.46e-06,0.0,0 STARLINK-4216,1 53022U 22076AN  24092.16907063 -.00000846  00000-0 -35091-4 0  9990,2 53022  53.2186  20.3066 0001396 103.2188 256.8960 15.08832102 96649,6917.905,95.438,540.735,538.804,0.0
53022.0,STARLINK-4216,PAYLOAD,2024-04-01 12:00:23,15.08843592,0.0001386,53.219,18.8199,101.4382,258.6766,0.00024831,3.667e-05,0.0,0 STARLINK-4216,1 53022U 22076AN  24092.50026636  .00003667  00000-0  24831-3 0  9997,2 53022  53.2190  18.8199 0001386 101.4382 258.6766 15.08843592 96692,6917.869,95.437,540.693,538.776,0.0
53022.0,STARLINK-4216,PAYLOAD,2024-04-02 11:51:09,15.08867663,0.0001606,53.2175,14.3584,82.2435,277.8739,0.00094009,0.00014716,0.0,0 STARLINK-4216,1 53022U 22076AN  24093.49386332  .00014716  00000-0  94009-3 0  9999,2 53022  53.2175  14.3584 0001606  82.2435 277.8739 15.08867663 96377,6917.796,95.436,540.772,538.55,0.0
53022.0,STARLINK-4216,PAYLOAD,2024-04-02 18:12:42,15.08846163,0.0001984,53.2191,13.1712,89.2375,270.8844,7.5424e-05,9.13e-06,0.0,0 STARLINK-4216,1 53022U 22076AN  24093.75882619  .00000913  00000-0  75424-4 0  9992,2 53022  53.2191  13.1712 0001984  89.2375 270.8844 15.08846163 96882,6917.862,95.437,541.099,538.354,0.0
53022.0,STARLINK-4216,PAYLOAD,2024-04-03 03:45:00,15.0886865,0.0001607,53.2185,11.3859,84.3837,275.7338,0.00091471,0.00014311,0.0,0 STARLINK-4216,1 53022U 22076AN  24094.15625980  .00014311  00000-0  91471-3 0  9999,2 53022  53.2185  11.3859 0001607  84.3837 275.7338 15.08868650 96942,6917.793,95.436,540.77,538.546,0.0
53022.0,STARLINK-4216,PAYLOAD,2024-04-03 11:41:55,15.08878206,0.0001845,53.2187,9.8993,68.3692,291.7497,0.0010303,0.00016164,0.0,0 STARLINK-4216,1 53022U 22076AN  24094.48745326  .00016164  00000-0  10303-2 0  9994,2 53022  53.2187   9.8993 0001845  68.3692 291.7497 15.08878206 96526,6917.764,95.435,540.905,538.352,0.0
